{
    "satellites": [
        {
            "name": "starlink367",
            "title": "Starlink-367 (G10-46) (new)",
            "tle": [
                "1 70161C 26054AE  26078.70187500 -.00147510  00000+0 -18525-3 0   784",
                "2 70161  53.1620 263.1516 0004213 291.6694 232.0191 16.06988436    15"
            ],
            "stdMag": 5,
            "noradId": "70161",
            "intDes": null,
            "tleUrl": "http://celestrak.org/NORAD/elements/supplemental/sup-gp.php?FILE=starlink&FORMAT=tle",
            "launchDate": "2026-03-17T13:27:34.000Z",
            "active": true
        },
        {
            "name": "starlink366",
            "title": "Starlink-366 (G17-24) (new)",
            "tle": [
                "1 70184C 26053Y   26078.69354167 -.00037169  00000+0 -37549-4 0   787",
                "2 70184  97.2825 313.1615 0002434 264.3301 141.0783 16.11034725    12"
            ],
            "stdMag": 5,
            "noradId": "70184",
            "intDes": null,
            "tleUrl": "http://celestrak.org/NORAD/elements/supplemental/sup-gp.php?FILE=starlink&FORMAT=tle",
            "launchDate": "2026-03-17T05:19:09.000Z",
            "active": true
        },
        {
            "name": "starlink365",
            "title": "Starlink-365 (G10-48) (new)",
            "tle": [
                "1 68167C 26050A   26078.70326389 -.02096000  00000+0 -54510-2 0   785",
                "2 68167  53.1615 231.8629 0000755  70.2637 335.2356 15.96430877    12"
            ],
            "stdMag": 5,
            "noradId": "68167",
            "intDes": null,
            "tleUrl": "http://celestrak.org/NORAD/elements/supplemental/sup-gp.php?FILE=starlink&FORMAT=tle",
            "launchDate": "2026-03-14T12:37:10.000Z",
            "active": true,
            "batch": [
                {
                    "noradId": "68167",
                    "tle": [
                        "1 68167C 26050A   26078.70326389 -.02096000  00000+0 -54510-2 0   785",
                        "2 68167  53.1615 231.8629 0000755  70.2637 335.2356 15.96430877    12"
                    ]
                },
                {
                    "noradId": "68168",
                    "tle": [
                        "1 68168C 26050B   26078.69493056 -.02074500  00000+0 -53362-2 0   785",
                        "2 68168  53.1616 231.9032 0000584  63.8269 294.9352 15.96613625    13"
                    ]
                },
                {
                    "noradId": "68169",
                    "tle": [
                        "1 68169C 26050C   26078.69562500 -.02058100  00000+0 -52455-2 0   787",
                        "2 68169  53.1616 231.8967 0000677  61.2881 302.8454 15.96767835    10"
                    ]
                },
                {
                    "noradId": "68170",
                    "tle": [
                        "1 68170C 26050D   26078.69562500 -.02042700  00000+0 -51584-2 0   780",
                        "2 68170  53.1615 231.8940 0000659  62.5850 302.9001 15.96923231    15"
                    ]
                }
            ]
        },
        {
            "name": "starlink364",
            "title": "Starlink-364 (G17-31) (new)",
            "tle": [
                "1 68142C 26049A   26078.70118056 -.01635300  00000+0 -33825-2 0   783",
                "2 68142  97.2795  98.2727 0001544  68.8446 278.4961 16.00904195    10"
            ],
            "stdMag": 5,
            "noradId": "68142",
            "intDes": null,
            "tleUrl": "http://celestrak.org/NORAD/elements/supplemental/sup-gp.php?FILE=starlink&FORMAT=tle",
            "launchDate": "2026-03-13T14:57:59.000Z",
            "active": true,
            "batch": [
                {
                    "noradId": "68142",
                    "tle": [
                        "1 68142C 26049A   26078.70118056 -.01635300  00000+0 -33825-2 0   783",
                        "2 68142  97.2795  98.2727 0001544  68.8446 278.4961 16.00904195    10"
                    ]
                },
                {
                    "noradId": "68143",
                    "tle": [
                        "1 68143C 26049B   26078.69493056 -.01619700  00000+0 -33258-2 0   784",
                        "2 68143  97.2796  98.2663 0001492  73.6433 239.0828 16.01018859    12"
                    ]
                }
            ]
        }
    ],
    "config": {}
}